NORAD_CAT_ID,OBJECT_NAME,OBJECT_TYPE,EPOCH,MEAN_MOTION,ECCENTRICITY,INCLINATION,RA_OF_ASC_NODE,ARG_OF_PERICENTER,MEAN_ANOMALY,BSTAR,MEAN_MOTION_DOT,MEAN_MOTION_DDOT,TLE_LINE0,TLE_LINE1,TLE_LINE2,SEMIMAJOR_AXIS,PERIOD,APOGEE,PERIGEE,DECAYED
53592.0,STARLINK-4672,PAYLOAD,2024-02-20 04:22:19,15.08829055,0.0001782,53.2203,4.4425,90.2402,269.8794,-3.8108e-05,-8.94e-06,0.0,0 STARLINK-4672,1 53592U 22104E   24051.18216665 -.00000894  00000-0 -38108-4 0  9997,2 53592  53.2203   4.4425 0001782  90.2402 269.8794 15.08829055 81923,6917.914,95.438,541.012,538.546,0.0
53592.0,STARLINK-4672,PAYLOAD,2024-02-20 13:54:37,15.08839474,0.0001628,53.2202,2.6575,87.733,272.3848,2.378e-05,9e-07,0.0,0 STARLINK-4672,1 53592U 22104E   24051.57959883  .00000090  00000-0  23780-4 0  9992,2 53592  53.2202   2.6575 0001628  87.7330 272.3848 15.08839474 83004,6917.882,95.438,540.873,538.621,0.0
53592.0,STARLINK-4672,PAYLOAD,2024-02-20 20:16:09,15.08836115,0.0001456,53.2177,1.466,87.9654,272.1505,3.5241e-05,2.73e-06,0.0,0 STARLINK-4672,1 53592U 22104E   24051.84456006  .00000273  00000-0  35241-4 0  9999,2 53592  53.2177   1.4660 0001456  87.9654 272.1505 15.08836115 83048,6917.892,95.438,540.765,538.75,0.0
53592.0,STARLINK-4672,PAYLOAD,2024-02-21 04:13:04,15.08847937,0.0001406,53.2187,359.9829,88.4042,271.7111,0.00017015,2.422e-05,0.0,0 STARLINK-4672,1 53592U 22104E   24052.17574899  .00002422  00000-0  17015-3 0  9993,2 53592  53.2187 359.9829 0001406  88.4042 271.7111 15.08847937 82073,6917.856,95.437,540.694,538.748,0.0
53592.0,STARLINK-4672,PAYLOAD,2024-02-21 13:45:23,15.08845638,0.0001709,53.2192,358.1974,78.3011,281.8173,-1.5928e-06,-3.13e-06,0.0,0 STARLINK-4672,1 53592U 22104E   24052.57319409 -.00000313  00000-0 -15928-5 0  9993,2 53592  53.2192 358.1974 0001709  78.3011 281.8173 15.08845638 83157,6917.863,95.437,540.91,538.546,0.0
53592.0,STARLINK-4672,PAYLOAD,2024-02-22 02:28:29,15.08834142,0.0001575,53.22,355.8148,100.354,259.763,5.162e-05,5.34e-06,0.0,0 STARLINK-4672,1 53592U 22104E   24053.10312138  .00000534  00000-0  51620-4 0  9996,2 53592  53.2200 355.8148 0001575 100.3540 259.7630 15.08834142 82214,6917.898,95.438,540.853,538.674,0.0
53592.0,STARLINK-4672,PAYLOAD,2024-02-22 13:36:11,15.08840349,0.0001427,53.2188,353.7319,95.0309,265.0847,7.6938e-05,9.37e-06,0.0,0 STARLINK-4672,1 53592U 22104E   24053.56679707  .00000937  00000-0  76938-4 0  9990,2 53592  53.2188 353.7319 0001427  95.0309 265.0847 15.08840349 83302,6917.879,95.438,540.732,538.757,0.0
53592.0,STARLINK-4672,PAYLOAD,2024-02-23 02:19:15,15.08855814,0.0001626,53.2194,351.3529,116.5234,243.5925,-5.8997e-06,-3.82e-06,0.0,0 STARLINK-4672,1 53592U 22104E   24054.09670775 -.00000382  00000-0 -58997-5 0  9997,2 53592  53.2194 351.3529 0001626 116.5234 243.5925 15.08855814 82369,6917.832,95.437,540.822,538.572,0.0
53592.0,STARLINK-4672,PAYLOAD,2024-02-23 05:30:01,15.08859406,0.0001631,53.219,350.7575,114.4511,245.6651,4.9199e-06,-2.1e-06,0.0,0 STARLINK-4672,1 53592U 22104E   24054.22918426 -.00000210  00000-0  49199-5 0  9993,2 53592  53.2190 350.7575 0001631 114.4511 245.6651 15.08859406 83406,6917.821,95.436,540.814,538.558,0.0
53592.0,STARLINK-4672,PAYLOAD,2024-02-24 02:10:03,15.08834236,0.0001431,53.2187,346.8866,96.4002,263.7153,4.8593e-05,4.85e-06,0.0,0 STARLINK-4672,1 53592U 22104E   24055.09032076  .00000485  00000-0  48593-4 0  9996,2 53592  53.2187 346.8866 0001431  96.4002 263.7153 15.08834236 82516,6917.898,95.438,540.753,538.773,0.0
53592.0,STARLINK-4672,PAYLOAD,2024-02-24 05:20:50,15.08836952,0.0001439,53.2192,346.2981,95.6572,264.4584,2.6651e-05,1.36e-06,0.0,0 STARLINK-4672,1 53592U 22104E   24055.22280154  .00000136  00000-0  26651-4 0  9997,2 53592  53.2192 346.2981 0001439  95.6572 264.4584 15.08836952 83553,6917.89,95.438,540.75,538.759,0.0
53592.0,STARLINK-4672,PAYLOAD,2024-02-25 11:33:07,15.08862195,0.0001316,53.2189,340.6512,89.8629,270.2514,8.7885e-05,1.112e-05,0.0,0 STARLINK-4672,1 53592U 22104E   24056.48133705  .00001112  00000-0  87885-4 0  9996,2 53592  53.2189 340.6512 0001316  89.8629 270.2514 15.08862195 82723,6917.813,95.436,540.588,538.767,0.0
53592.0,STARLINK-4672,PAYLOAD,2024-02-25 19:30:05,15.0882978,0.0001668,53.2186,339.1675,100.9908,259.1272,-1.132e-05,-4.68e-06,0.0,0 STARLINK-4672,1 53592U 22104E   24056.81255963 -.00000468  00000-0 -11320-4 0  9990,2 53592  53.2186 339.1675 0001668 100.9908 259.1272 15.08829780 82773,6917.912,95.438,540.931,538.623,0.0
53592.0,STARLINK-4672,PAYLOAD,2024-02-25 22:40:51,15.08828462,0.0001556,53.2196,338.5728,104.2179,255.8986,-9.7753e-06,-4.43e-06,0.0,0 STARLINK-4672,1 53592U 22104E   24056.94504048 -.00000443  00000-0 -97753-5 0  9993,2 53592  53.2196 338.5728 0001556 104.2179 255.8986 15.08828462 83816,6917.916,95.438,540.857,538.704,0.0
53592.0,STARLINK-4672,PAYLOAD,2024-02-26 03:27:00,15.08838741,0.0001296,53.219,337.6783,85.0725,275.0415,2.8029e-05,1.58e-06,0.0,0 STARLINK-4672,1 53592U 22104E   24057.14375819  .00000158  00000-0  28029-4 0  9998,2 53592  53.2190 337.6783 0001296  85.0725 275.0415 15.08838741 83840,6917.884,95.438,540.646,538.853,0.0
53592.0,STARLINK-4672,PAYLOAD,2024-02-26 22:31:39,15.08877995,0.0001918,53.221,334.1123,78.825,281.2958,-0.00059728,-9.791e-05,0.0,0 STARLINK-4672,1 53592U 22104E   24057.93864996 -.00009791  00000-0 -59728-3 0  9997,2 53592  53.2210 334.1123 0001918  78.8250 281.2958 15.08877995 83965,6917.764,95.435,540.956,538.302,0.0
53592.0,STARLINK-4672,PAYLOAD,2024-02-27 03:17:47,15.08824296,0.0001518,53.2191,333.2162,70.8084,289.3073,0.00025052,3.7e-05,0.0,0 STARLINK-4672,1 53592U 22104E   24058.13735962  .00003700  00000-0  25052-3 0  9995,2 53592  53.2191 333.2162 0001518  70.8084 289.3073 15.08824296 82972,6917.928,95.439,540.844,538.743,0.0
53592.0,STARLINK-4672,PAYLOAD,2024-02-27 17:36:17,15.08816585,0.0001334,53.2178,330.5413,116.8315,243.2814,5.4745e-05,5.83e-06,0.0,0 STARLINK-4672,1 53592U 22104E   24058.73353311  .00000583  00000-0  54745-4 0  9993,2 53592  53.2178 330.5413 0001334 116.8315 243.2814 15.08816585 83065,6917.952,95.439,540.74,538.894,0.0
53592.0,STARLINK-4672,PAYLOAD,2024-02-27 22:22:26,15.08818488,0.0001485,53.2176,329.653,78.6376,281.4783,2.8682e-05,1.68e-06,0.0,0 STARLINK-4672,1 53592U 22104E   24058.93225597  .00000168  00000-0  28682-4 0  9999,2 53592  53.2176 329.6530 0001485  78.6376 281.4783 15.08818488 84111,6917.946,95.439,540.838,538.784,0.0
53592.0,STARLINK-4672,PAYLOAD,2024-02-28 11:05:31,15.08836494,0.0001474,53.2184,327.2708,82.4674,277.6485,0.0001487,2.079e-05,0.0,0 STARLINK-4672,1 53592U 22104E   24059.46217073  .00002079  00000-0  14870-3 0  9994,2 53592  53.2184 327.2708 0001474  82.4674 277.6485 15.08836494 83171,6917.891,95.438,540.776,538.736,0.0
53592.0,STARLINK-4672,PAYLOAD,2024-02-28 22:13:13,15.08849136,0.000136,53.2166,325.1907,82.132,277.9826,0.00027891,4.155e-05,0.0,0 STARLINK-4672,1 53592U 22104E   24059.92584641  .00004155  00000-0  27891-3 0  9997,2 53592  53.2166 325.1907 0001360  82.1320 277.9826 15.08849136 84268,6917.852,95.437,540.658,538.777,0.0
53592.0,STARLINK-4672,PAYLOAD,2024-02-29 02:59:22,15.08860936,0.0001418,53.2164,324.2976,84.6314,275.484,0.00062297,9.646e-05,0.0,0 STARLINK-4672,1 53592U 22104E   24060.12456432  .00009646  00000-0  62297-3 0  9996,2 53592  53.2164 324.2976 0001418  84.6314 275.4840 15.08860936 83276,6917.816,95.436,540.662,538.7,0.0
53592.0,STARLINK-4672,PAYLOAD,2024-02-29 10:56:18,15.08847999,0.0001168,53.2168,322.8083,101.693,258.4194,0.00034698,5.24e-05,0.0,0 STARLINK-4672,1 53592U 22104E   24060.45576620  .00005240  00000-0  34698-3 0  9994,2 53592  53.2168 322.8083 0001168 101.6930 258.4194 15.08847999 83322,6917.856,95.437,540.529,538.913,0.0
53592.0,STARLINK-4672,PAYLOAD,2024-02-29 22:04:00,15.08849894,0.0001825,53.2155,320.728,94.099,266.021,0.00021181,3.085e-05,0.0,0 STARLINK-4672,1 53592U 22104E   24060.91944709  .00003085  00000-0  21181-3 0  9990,2 53592  53.2155 320.7280 0001825  94.0990 266.0210 15.08849894 84416,6917.85,95.437,540.978,538.453,0.0
53592.0,STARLINK-4672,PAYLOAD,2024-03-01 10:47:05,15.08846951,0.0001593,53.2164,318.3469,104.5323,255.5846,9.5657e-05,1.235e-05,0.0,0 STARLINK-4672,1 53592U 22104E   24061.44936511  .00001235  00000-0  95657-4 0  9996,2 53592  53.2164 318.3469 0001593 104.5323 255.5846 15.08846951 83471,6917.859,95.437,540.826,538.622,0.0
53592.0,STARLINK-4672,PAYLOAD,2024-03-01 21:54:46,15.0885514,0.0001478,53.2166,316.2664,104.7798,255.3358,0.00023863,3.513e-05,0.0,0 STARLINK-4672,1 53592U 22104E   24061.91303993  .00003513  00000-0  23863-3 0  9990,2 53592  53.2166 316.2664 0001478 104.7798 255.3358 15.08855140 84564,6917.834,95.437,540.722,538.677,0.0
53592.0,STARLINK-4672,PAYLOAD,2024-03-01 23:30:09,15.08855607,0.0001497,53.2165,315.9706,100.3453,259.7708,0.00018642,2.681e-05,0.0,0 STARLINK-4672,1 53592U 22104E   24061.97927963  .00002681  00000-0  18642-3 0  9999,2 53592  53.2165 315.9706 0001497 100.3453 259.7708 15.08855607 83550,6917.833,95.437,540.733,538.662,0.0
53592.0,STARLINK-4672,PAYLOAD,2024-03-02 20:10:11,15.08840455,0.0001623,53.2167,312.1085,84.9694,275.1483,8.2728e-05,1.029e-05,0.0,0 STARLINK-4672,1 53592U 22104E   24062.84040531  .00001029  00000-0  82728-4 0  9995,2 53592  53.2167 312.1085 0001623  84.9694 275.1483 15.08840455 83687,6917.879,95.438,540.867,538.621,0.0
53592.0,STARLINK-4672,PAYLOAD,2024-03-02 21:45:34,15.08838437,0.0001526,53.2164,311.8109,87.1884,272.9282,6.5305e-05,7.51e-06,0.0,0 STARLINK-4672,1 53592U 22104E   24062.90664616  .00000751  00000-0  65305-4 0  9991,2 53592  53.2164 311.8109 0001526  87.1884 272.9282 15.08838437 84719,6917.885,95.438,540.806,538.694,0.0
53592.0,STARLINK-4672,PAYLOAD,2024-03-03 08:53:16,15.08839014,0.0001588,53.2153,309.7246,74.7476,285.3691,3.7572e-05,3.1e-06,0.0,0 STARLINK-4672,1 53592U 22104E   24063.37032688  .00000310  00000-0  37572-4 0  9997,2 53592  53.2153 309.7246 0001588  74.7476 285.3691 15.08839014 84783,6917.883,95.438,540.847,538.65,0.0
